
M2 PATHFINDER           
1 45727U 20037E   24324.74065412  .00004724  00000+0  38965-3 0  9991
2 45727  97.7796 140.6781 0011604 325.2965  34.7500 14.99461341239233
NETSAT-4                
1 46504U 20068U   24324.72367625  .00018009  00000+0  80373-3 0  9999
2 46504  97.8252 286.8387 0008733 166.6680 193.4787 15.21409022227769
NETSAT-3                
1 46505U 20068V   24325.16460179  .00019468  00000+0  88557-3 0  9999
2 46505  97.8241 286.6084 0007738 174.6122 185.5197 15.20743685227812
NETSAT-1                
1 46506U 20068W   24325.17149566  .00015854  00000+0  78452-3 0  9993
2 46506  97.8263 285.6065 0006427 186.9498 173.1646 15.17879731227743
NETSAT-2                
1 46507U 20068X   24325.14027980  .00019484  00000+0  87208-3 0  9998
2 46507  97.8237 286.8579 0005388 186.0722 174.0448 15.21313808227770
WILDTRACKCUBE-SIMBA     
1 47941U 21022K   24325.19148864  .00027715  00000+0  93958-3 0  9997
2 47941  97.4405 221.2275 0011433 327.2162  32.8368 15.30453154202243
GRBALPHA                
1 47959U 21022AD  24325.11336107  .00061114  00000+0  15131-2 0  9994
2 47959  97.4399 224.5022 0008098 320.4872  39.5783 15.40181020201274
BEESAT-8                
1 48085U 21022AP  24324.49784569  .00125701  00000+0  18139-2 0  9998
2 48085  97.4695 230.0094 0002731 339.8947  20.2199 15.55537569201794
LEDSAT                  
1 49069U 21073D   24325.16579763  .00043515  00000+0  12305-2 0  9991
2 49069  97.4188  36.1470 0015827  90.2399 270.0658 15.36070788180296
ROBUSTA-1F (MTCUBE 2)   
1 53109U 22080E   24324.41943314 -.00000003  00000+0  00000+0 0  9996
2 53109  70.1141 138.1481 0008348  55.0443 305.1000  6.42584291 55138
SITRO-AIS 5 (KATYS)     
1 57176U 23091L   24325.21788930  .00012710  00000+0  71097-3 0  9992
2 57176  97.5910  16.3693 0015047 310.4839  49.5080 15.13506029 77059
SITRO-AIS 6 (CHIRKIN)   
1 57192U 23091AC  24325.13247738  .00014289  00000+0  79835-3 0  9998
2 57192  97.5907  16.3150 0014812 310.6251  49.3691 15.13524302 77049
SITRO-AIS 8 (ANOKHIN)   
1 57193U 23091AD  24325.11712403  .00015449  00000+0  84561-3 0  9994
2 57193  97.5902  16.4778 0014600 311.0463  48.9506 15.14242292 77054
SITRO-AIS 7 (FARTUSHNIY)
1 57194U 23091AE  24325.14390745  .00014619  00000+0  81884-3 0  9992
2 57194  97.5908  16.2912 0014719 311.4117  48.5848 15.13430437 77043
SITRO-AIS 10 (BURDAEV)  
1 57199U 23091AK  24325.21010200  .00014691  00000+0  75429-3 0  9998
2 57199  97.5920  17.9847 0009804 297.5898  62.4338 15.16571847 77151
SITRO-AIS 9 (SHCHUKIN)  
1 57201U 23091AM  24325.14571032  .00017294  00000+0  88863-3 0  9997
2 57201  97.5917  17.8836 0009806 297.9256  62.0983 15.16508309 77146
SITRO-AIS 12 (SMIRENNIY)
1 57204U 23091AQ  24325.15413501  .00017704  00000+0  90443-3 0  9990
2 57204  97.5925  18.0875 0009689 290.9705  69.0490 15.16707913 77158
SITRO-AIS 11 (SHEFFER)  
1 57208U 23091AU  24325.12842881  .00017585  00000+0  89475-3 0  9998
2 57208  97.5920  18.1065 0009602 291.3883  68.6325 15.16850490 77157
VERONIKA                
1 58261U 23174F   24325.15840021  .00049233  00000+0  14842-2 0  9997
2 58261  97.4431  39.5551 0009469  53.2867 306.9244 15.34106900 57503
ROBUSTA-1E (ENSO)       
1 58470U 23185J   24325.16272314  .00038396  00000+0  11635-2 0  9991
2 58470  97.4055  31.0717 0010847  87.3396 272.9088 15.33987985 53957
SITRO-AIS 29            
1 59052U 24039B   24325.05305842  .00070217  00000+0  15419-2 0  9990
2 59052  97.4081 287.3761 0015204  37.0648 323.1647 15.43664589 40490
SITRO-AIS 30            
1 59053U 24039C   24325.13740651  .00072793  00000+0  16200-2 0  9991
2 59053  97.4081 287.4104 0015475  37.3618 322.8703 15.43251270 40491
SITRO-AIS 31            
1 59054U 24039D   24325.17311743  .00070699  00000+0  15548-2 0  9999
2 59054  97.4080 287.5158 0015287  37.4010 322.8299 15.43617113 40525
SITRO-AIS 33            
1 59055U 24039E   24325.15285495  .00068779  00000+0  15074-2 0  9992
2 59055  97.4082 287.5546 0014997  38.3464 321.8847 15.43731850 40511
SITRO-AIS 35            
1 59056U 24039F   24325.14740191  .00071383  00000+0  15601-2 0  9992
2 59056  97.4081 287.5570 0014884  38.9778 321.2540 15.43805657 40518
SITRO-AIS 32            
1 59057U 24039G   24325.17215953  .00060410  00000+0  13375-2 0  9994
2 59057  97.4087 287.5301 0015144  38.8851 321.3483 15.43463711 40516
SITRO-AIS 34            
1 59058U 24039H   24325.15225845  .00059210  00000+0  12990-2 0  9992
2 59058  97.4084 287.5572 0014935  38.3068 321.9238 15.43744373 40516
SITRO-AIS 36            
1 59059U 24039J   24325.19827925  .00059289  00000+0  12952-2 0  9998
2 59059  97.4083 287.6424 0014803  38.7236 321.5070 15.43873025 40526
SITRO-AIS 49            
1 59060U 24039K   24325.14674533  .00068543  00000+0  15090-2 0  9999
2 59060  97.4086 287.5618 0014813  38.3797 321.8502 15.43601931 40511
SITRO-AIS 50            
1 59061U 24039L   24325.10792336  .00068800  00000+0  14863-2 0  9991
2 59061  97.4082 287.6083 0014731  38.7523 321.4779 15.44163287 40515
SITRO-AIS 51            
1 59062U 24039M   24325.17142701  .00063376  00000+0  13673-2 0  9995
2 59062  97.4080 287.6743 0014634  39.1412 321.0892 15.44227585 40526
SITRO-AIS 52            
1 59063U 24039N   24325.15410630  .00060287  00000+0  12979-2 0  9999
2 59063  97.4083 287.7017 0014451  39.0256 321.2032 15.44306744 40520
SITRO-AIS 25            
1 59066U 24039R   24325.14882111  .00007553  00000+0  67816-3 0  9996
2 59066  95.3876 203.1098 0163865 164.6638 195.9638 14.86066419 39246
SITRO-AIS 26            
1 59067U 24039S   24325.15568888  .00006355  00000+0  57282-3 0  9995
2 59067  95.3877 203.1029 0164039 164.7221 195.9041 14.85940741 39241
SITRO-AIS 27            
1 59068U 24039T   24325.12445854  .00006666  00000+0  59744-3 0  9990
2 59068  95.3877 203.1376 0163414 164.4970 196.1345 14.86211597 39242
SITRO-AIS 28            
1 59071U 24039U   24325.18442521  .00005433  00000+0  48718-3 0  9998
2 59071  95.3879 203.1928 0163241 164.2436 196.3953 14.86256606 39252
GRBBETA                 
1 60237U 24128C   24324.70186769  .00006353  00000+0  52869-3 0  9993
2 60237  61.9947  61.7666 0027282   4.8358 355.2989 14.99368962 19892
OOV-CUBE (TUBSAT-30)    
1 60240U 24128F   24324.77789713  .00004281  00000+0  37421-3 0  9997
2 60240  61.9984  62.1780 0025292 359.9725   0.1358 14.98084434 19906
ROBUSTA-3A (MEDITERRAN*)
1 60243U 24128J   24324.69112226  .00010543  00000+0  86454-3 0  9998
2 60243  61.9917  62.2120 0025603 352.6046   7.4662 14.99461115 19898
